[{"OBJECT_NAME":"SL-8 R/B","OBJECT_ID":"1991-006B","EPOCH":"2026-03-24T05:20:42.722880","MEAN_MOTION":13.77496453,"ECCENTRICITY":0.00221532,"INCLINATION":82.9453,"RA_OF_ASC_NODE":159.2417,"ARG_OF_PERICENTER":358.2452,"MEAN_ANOMALY":55.107,"EPHEMERIS_TYPE":0,"CLASSIFICATION_TYPE":"U","NORAD_CAT_ID":21088,"ELEMENT_SET_NO":999,"REV_AT_EPOCH":76607,"BSTAR":8.6204846e-5,"MEAN_MOTION_DOT":1.01e-6,"MEAN_MOTION_DDOT":0},{"OBJECT_NAME":"OKEAN-3","OBJECT_ID":"1991-039A","EPOCH":"2026-03-24T04:11:22.759872","MEAN_MOTION":15.04892465,"ECCENTRICITY":0.00124346,"INCLINATION":82.5169,"RA_OF_ASC_NODE":322.8106,"ARG_OF_PERICENTER":282.9223,"MEAN_ANOMALY":77.0614,"EPHEMERIS_TYPE":0,"CLASSIFICATION_TYPE":"U","NORAD_CAT_ID":21397,"ELEMENT_SET_NO":999,"REV_AT_EPOCH":86721,"BSTAR":0.00015434654,"MEAN_MOTION_DOT":2.214e-5,"MEAN_MOTION_DDOT":0},{"OBJECT_NAME":"COSMOS 2151","OBJECT_ID":"1991-042A","EPOCH":"2026-03-24T05:23:14.151840","MEAN_MOTION":15.00161861,"ECCENTRICITY":0.00129502,"INCLINATION":82.4942,"RA_OF_ASC_NODE":69.6509,"ARG_OF_PERICENTER":18.7839,"MEAN_ANOMALY":341.3861,"EPHEMERIS_TYPE":0,"CLASSIFICATION_TYPE":"U","NORAD_CAT_ID":21422,"ELEMENT_SET_NO":999,"REV_AT_EPOCH":86537,"BSTAR":0.00018040819,"MEAN_MOTION_DOT":2.282e-5,"MEAN_MOTION_DDOT":0},{"OBJECT_NAME":"SL-14 R/B","OBJECT_ID":"1991-042B","EPOCH":"2026-03-24T06:37:02.706528","MEAN_MOTION":14.81843911,"ECCENTRICITY":0.00168223,"INCLINATION":82.4949,"RA_OF_ASC_NODE":206.5066,"ARG_OF_PERICENTER":188.326,"MEAN_ANOMALY":171.7678,"EPHEMERIS_TYPE":0,"CLASSIFICATION_TYPE":"U","NORAD_CAT_ID":21423,"ELEMENT_SET_NO":999,"REV_AT_EPOCH":85523,"BSTAR":6.1079855e-5,"MEAN_MOTION_DOT":5.07e-6,"MEAN_MOTION_DDOT":0},{"OBJECT_NAME":"ERS-1","OBJECT_ID":"1991-050A","EPOCH":"2026-03-24T00:23:50.310528","MEAN_MOTION":14.39459736,"ECCENTRICITY":0.00324406,"INCLINATION":98.7871,"RA_OF_ASC_NODE":101.6108,"ARG_OF_PERICENTER":158.0203,"MEAN_ANOMALY":202.2383,"EPHEMERIS_TYPE":0,"CLASSIFICATION_TYPE":"U","NORAD_CAT_ID":21574,"ELEMENT_SET_NO":999,"REV_AT_EPOCH":81779,"BSTAR":0.00011195166,"MEAN_MOTION_DOT":3.05e-6,"MEAN_MOTION_DDOT":0},{"OBJECT_NAME":"ARIANE 40 R/B","OBJECT_ID":"1991-050F","EPOCH":"2026-03-24T04:07:50.412864","MEAN_MOTION":14.42903691,"ECCENTRICITY":0.00038077,"INCLINATION":98.1982,"RA_OF_ASC_NODE":134.863,"ARG_OF_PERICENTER":49.0244,"MEAN_ANOMALY":311.1275,"EPHEMERIS_TYPE":0,"CLASSIFICATION_TYPE":"U","NORAD_CAT_ID":21610,"ELEMENT_SET_NO":999,"REV_AT_EPOCH":82108,"BSTAR":0.00010333504,"MEAN_MOTION_DOT":3.04e-6,"MEAN_MOTION_DDOT":0},{"OBJECT_NAME":"INTERCOSMOS 25","OBJECT_ID":"1991-086A","EPOCH":"2026-03-24T02:29:21.599808","MEAN_MOTION":12.12048142,"ECCENTRICITY":0.14867107,"INCLINATION":82.6021,"RA_OF_ASC_NODE":301.2953,"ARG_OF_PERICENTER":85.8755,"MEAN_ANOMALY":291.0254,"EPHEMERIS_TYPE":0,"CLASSIFICATION_TYPE":"U","NORAD_CAT_ID":21819,"ELEMENT_SET_NO":999,"REV_AT_EPOCH":49843,"BSTAR":0.00028946583,"MEAN_MOTION_DOT":1.514e-5,"MEAN_MOTION_DDOT":0},{"OBJECT_NAME":"SL-8 R/B","OBJECT_ID":"1992-008B","EPOCH":"2026-03-24T05:09:29.035296","MEAN_MOTION":13.75969555,"ECCENTRICITY":0.00359374,"INCLINATION":82.9225,"RA_OF_ASC_NODE":256.97,"ARG_OF_PERICENTER":94.0962,"MEAN_ANOMALY":78.046,"EPHEMERIS_TYPE":0,"CLASSIFICATION_TYPE":"U","NORAD_CAT_ID":21876,"ELEMENT_SET_NO":999,"REV_AT_EPOCH":71141,"BSTAR":-1.1249196e-5,"MEAN_MOTION_DOT":5.0e-8,"MEAN_MOTION_DDOT":0},{"OBJECT_NAME":"SL-8 R/B","OBJECT_ID":"1992-020B","EPOCH":"2026-03-24T05:45:56.276352","MEAN_MOTION":13.75550401,"ECCENTRICITY":0.00276213,"INCLINATION":82.9313,"RA_OF_ASC_NODE":142.9588,"ARG_OF_PERICENTER":256.22,"MEAN_ANOMALY":165.7521,"EPHEMERIS_TYPE":0,"CLASSIFICATION_TYPE":"U","NORAD_CAT_ID":21938,"ELEMENT_SET_NO":999,"REV_AT_EPOCH":70313,"BSTAR":1.974578e-5,"MEAN_MOTION_DOT":3.4e-7,"MEAN_MOTION_DDOT":0},{"OBJECT_NAME":"USA 81","OBJECT_ID":"1992-023A","EPOCH":"2026-03-24T04:32:25.800864","MEAN_MOTION":14.32372498,"ECCENTRICITY":0.00019758,"INCLINATION":85.0057,"RA_OF_ASC_NODE":123.0743,"ARG_OF_PERICENTER":68.6552,"MEAN_ANOMALY":291.4851,"EPHEMERIS_TYPE":0,"CLASSIFICATION_TYPE":"U","NORAD_CAT_ID":21949,"ELEMENT_SET_NO":999,"REV_AT_EPOCH":9686,"BSTAR":5.3119267e-5,"MEAN_MOTION_DOT":1.63e-6,"MEAN_MOTION_DDOT":0},{"OBJECT_NAME":"COSMOS 2219","OBJECT_ID":"1992-076A","EPOCH":"2026-03-24T03:55:49.404000","MEAN_MOTION":14.14092401,"ECCENTRICITY":0.00181427,"INCLINATION":71.0635,"RA_OF_ASC_NODE":347.814,"ARG_OF_PERICENTER":186.2784,"MEAN_ANOMALY":173.8114,"EPHEMERIS_TYPE":0,"CLASSIFICATION_TYPE":"U","NORAD_CAT_ID":22219,"ELEMENT_SET_NO":999,"REV_AT_EPOCH":72042,"BSTAR":-7.1470302e-5,"MEAN_MOTION_DOT":-1.83e-6,"MEAN_MOTION_DDOT":0},{"OBJECT_NAME":"SL-16 R/B","OBJECT_ID":"1992-076B","EPOCH":"2026-03-24T05:45:53.215200","MEAN_MOTION":14.16863318,"ECCENTRICITY":0.00106226,"INCLINATION":71.0006,"RA_OF_ASC_NODE":157.7259,"ARG_OF_PERICENTER":69.2713,"MEAN_ANOMALY":352.3129,"EPHEMERIS_TYPE":0,"CLASSIFICATION_TYPE":"U","NORAD_CAT_ID":22220,"ELEMENT_SET_NO":999,"REV_AT_EPOCH":72389,"BSTAR":0.00010574043,"MEAN_MOTION_DOT":1.64e-6,"MEAN_MOTION_DDOT":0},{"OBJECT_NAME":"COSMOS 2221","OBJECT_ID":"1992-080A","EPOCH":"2026-03-23T22:46:29.255808","MEAN_MOTION":14.96255768,"ECCENTRICITY":0.00151938,"INCLINATION":82.5003,"RA_OF_ASC_NODE":265.4181,"ARG_OF_PERICENTER":140.5035,"MEAN_ANOMALY":219.7298,"EPHEMERIS_TYPE":0,"CLASSIFICATION_TYPE":"U","NORAD_CAT_ID":22236,"ELEMENT_SET_NO":999,"REV_AT_EPOCH":78292,"BSTAR":0.00017513225,"MEAN_MOTION_DOT":2.007e-5,"MEAN_MOTION_DDOT":0},{"OBJECT_NAME":"SL-16 R/B","OBJECT_ID":"1992-093B","EPOCH":"2026-03-24T03:44:56.736672","MEAN_MOTION":14.15451586,"ECCENTRICITY":0.00063549,"INCLINATION":71.0236,"RA_OF_ASC_NODE":333.8993,"ARG_OF_PERICENTER":279.3439,"MEAN_ANOMALY":80.6965,"EPHEMERIS_TYPE":0,"CLASSIFICATION_TYPE":"U","NORAD_CAT_ID":22285,"ELEMENT_SET_NO":999,"REV_AT_EPOCH":71520,"BSTAR":0.00019924415,"MEAN_MOTION_DOT":3.42e-6,"MEAN_MOTION_DDOT":0},{"OBJECT_NAME":"COSMOS 2228","OBJECT_ID":"1992-094A","EPOCH":"2026-03-24T06:57:31.365504","MEAN_MOTION":14.97262365,"ECCENTRICITY":0.00166512,"INCLINATION":82.5181,"RA_OF_ASC_NODE":223.3301,"ARG_OF_PERICENTER":251.2942,"MEAN_ANOMALY":108.6473,"EPHEMERIS_TYPE":0,"CLASSIFICATION_TYPE":"U","NORAD_CAT_ID":22286,"ELEMENT_SET_NO":999,"REV_AT_EPOCH":77824,"BSTAR":0.00019443264,"MEAN_MOTION_DOT":2.283e-5,"MEAN_MOTION_DDOT":0},{"OBJECT_NAME":"SL-16 R/B","OBJECT_ID":"1993-016B","EPOCH":"2026-03-23T23:39:52.085664","MEAN_MOTION":14.15306023,"ECCENTRICITY":0.00123606,"INCLINATION":71.008,"RA_OF_ASC_NODE":185.1566,"ARG_OF_PERICENTER":295.6,"MEAN_ANOMALY":64.3845,"EPHEMERIS_TYPE":0,"CLASSIFICATION_TYPE":"U","NORAD_CAT_ID":22566,"ELEMENT_SET_NO":999,"REV_AT_EPOCH":70419,"BSTAR":-7.9666288e-5,"MEAN_MOTION_DOT":-2.03e-6,"MEAN_MOTION_DDOT":0},{"OBJECT_NAME":"COSMOS 2242","OBJECT_ID":"1993-024A","EPOCH":"2026-03-24T05:04:40.183680","MEAN_MOTION":14.96607179,"ECCENTRICITY":0.00149295,"INCLINATION":82.5155,"RA_OF_ASC_NODE":252.822,"ARG_OF_PERICENTER":255.3948,"MEAN_ANOMALY":104.5619,"EPHEMERIS_TYPE":0,"CLASSIFICATION_TYPE":"U","NORAD_CAT_ID":22626,"ELEMENT_SET_NO":999,"REV_AT_EPOCH":78256,"BSTAR":0.00018576392,"MEAN_MOTION_DOT":2.145e-5,"MEAN_MOTION_DDOT":0}]
